ATLAS CENTAUR R/B       
1 06155U 72065B   26007.54182471  .00001461  00000+0  20278-3 0  9997
2 06155  35.0025 304.0493 0034348 216.8229 143.0111 14.77492135832219
SL-8 R/B                
1 08459U 75112B   26007.77705103  .00000331  00000+0  11767-3 0  9998
2 08459  74.0611 130.9662 0016604 239.7697 120.1814 14.38166066623115
SL-3 R/B                
1 10114U 77057B   26007.82127112  .00011765  00000+0  26252-3 0  9991
2 10114  97.5700 177.1805 0008156 135.8998 224.2901 15.43689985658938
SEASAT 1                
1 10967U 78064A   26007.83088071  .00000458  00000+0  16663-3 0  9999
2 10967 108.0149 357.7784 0001179 268.5030  91.5980 14.46096351497710
SL-14 R/B               
1 11267U 79011B   26007.81324820  .00000843  00000+0  80991-4 0  9993
2 11267  82.5252 154.3160 0014659 260.1900  99.7664 14.91812898519700
SL-8 R/B                
1 11574U 79089B   26007.84709044  .00000285  00000+0  94220-4 0  9997
2 11574  74.0672 203.6591 0015173  27.8156 332.3809 14.42301666427338
SL-14 R/B               
1 11672U 80005B   26007.71921872  .00000796  00000+0  78200-4 0  9994
2 11672  82.5141   5.0563 0016094  12.7715 347.3908 14.90831464467407
SL-8 R/B                
1 12139U 81003B   26007.69106985  .00022817  00000+0  60214-3 0  9992
2 12139  82.9383 346.3208 0274091  31.2774 330.4436 15.08130773305471
SL-3 R/B                
1 12465U 81046B   26007.81626112  .00010616  00000+0  26153-3 0  9992
2 12465  81.2327   2.7254 0018132 227.3108 132.6607 15.40266000429050
SL-3 R/B                
1 12904U 81103B   26007.85344661  .00006091  00000+0  27605-3 0  9999
2 12904  81.1595 284.7657 0014027 125.2272 235.0274 15.20606028963989
SL-3 R/B                
1 13068U 82013B   26007.82289795  .00004447  00000+0  19597-3 0  9999
2 13068  81.1727 232.0743 0023398  27.1151 333.1296 15.21353327395094
SL-3 R/B                
1 13154U 82039B   26007.82103185  .00003038  00000+0  18513-3 0  9993
2 13154  81.1691 286.0870 0029714 164.0204 196.1966 15.09711979372451
