CCSDS_OMM_VERS = 2.0
CREATION_DATE  = 
ORIGINATOR     = 

OBJECT_NAME    = ATLAS CENTAUR R/B
OBJECT_ID      = 1972-065B
CENTER_NAME    = EARTH
REF_FRAME      = TEME
TIME_SYSTEM    = UTC
MEAN_ELEMENT_THEORY = SGP/SGP4

EPOCH          = 2026-01-07T13:00:13.654944
MEAN_MOTION    = 14.77492135
ECCENTRICITY   = .0034348
INCLINATION    = 35.0025
RA_OF_ASC_NODE = 304.0493
ARG_OF_PERICENTER = 216.8229
MEAN_ANOMALY   = 143.0111

EPHEMERIS_TYPE = 0
CLASSIFICATION_TYPE = U
NORAD_CAT_ID   = 6155
ELEMENT_SET_NO = 999
REV_AT_EPOCH   = 83221
BSTAR          = .20278E-3
MEAN_MOTION_DOT = .1461E-4
MEAN_MOTION_DDOT = 0

CCSDS_OMM_VERS = 2.0
CREATION_DATE  = 
ORIGINATOR     = 

OBJECT_NAME    = SL-8 R/B
OBJECT_ID      = 1975-112B
CENTER_NAME    = EARTH
REF_FRAME      = TEME
TIME_SYSTEM    = UTC
MEAN_ELEMENT_THEORY = SGP/SGP4

EPOCH          = 2026-01-07T18:38:57.208992
MEAN_MOTION    = 14.38166066
ECCENTRICITY   = .0016604
INCLINATION    = 74.0611
RA_OF_ASC_NODE = 130.9662
ARG_OF_PERICENTER = 239.7697
MEAN_ANOMALY   = 120.1814

EPHEMERIS_TYPE = 0
CLASSIFICATION_TYPE = U
NORAD_CAT_ID   = 8459
ELEMENT_SET_NO = 999
REV_AT_EPOCH   = 62311
BSTAR          = .11767E-3
MEAN_MOTION_DOT = .331E-5
MEAN_MOTION_DDOT = 0

CCSDS_OMM_VERS = 2.0
CREATION_DATE  = 
ORIGINATOR     = 

OBJECT_NAME    = SL-3 R/B
OBJECT_ID      = 1977-057B
CENTER_NAME    = EARTH
REF_FRAME      = TEME
TIME_SYSTEM    = UTC
MEAN_ELEMENT_THEORY = SGP/SGP4

EPOCH          = 2026-01-07T19:42:37.824768
MEAN_MOTION    = 15.43689985
ECCENTRICITY   = .0008156
INCLINATION    = 97.5700
RA_OF_ASC_NODE = 177.1805
ARG_OF_PERICENTER = 135.8998
MEAN_ANOMALY   = 224.2901

EPHEMERIS_TYPE = 0
CLASSIFICATION_TYPE = U
NORAD_CAT_ID   = 10114
ELEMENT_SET_NO = 999
REV_AT_EPOCH   = 65893
BSTAR          = .26252E-3
MEAN_MOTION_DOT = .11765E-3
MEAN_MOTION_DDOT = 0

CCSDS_OMM_VERS = 2.0
CREATION_DATE  = 
ORIGINATOR     = 

OBJECT_NAME    = SEASAT 1
OBJECT_ID      = 1978-064A
CENTER_NAME    = EARTH
REF_FRAME      = TEME
TIME_SYSTEM    = UTC
MEAN_ELEMENT_THEORY = SGP/SGP4

EPOCH          = 2026-01-07T19:56:28.093344
MEAN_MOTION    = 14.46096351
ECCENTRICITY   = .0001179
INCLINATION    = 108.0149
RA_OF_ASC_NODE = 357.7784
ARG_OF_PERICENTER = 268.5030
MEAN_ANOMALY   = 91.5980

EPHEMERIS_TYPE = 0
CLASSIFICATION_TYPE = U
NORAD_CAT_ID   = 10967
ELEMENT_SET_NO = 999
REV_AT_EPOCH   = 49771
BSTAR          = .16663E-3
MEAN_MOTION_DOT = .458E-5
MEAN_MOTION_DDOT = 0

CCSDS_OMM_VERS = 2.0
CREATION_DATE  = 
ORIGINATOR     = 

OBJECT_NAME    = SL-14 R/B
OBJECT_ID      = 1979-011B
CENTER_NAME    = EARTH
REF_FRAME      = TEME
TIME_SYSTEM    = UTC
MEAN_ELEMENT_THEORY = SGP/SGP4

EPOCH          = 2026-01-07T19:31:04.644480
MEAN_MOTION    = 14.91812898
ECCENTRICITY   = .0014659
INCLINATION    = 82.5252
RA_OF_ASC_NODE = 154.3160
ARG_OF_PERICENTER = 260.1900
MEAN_ANOMALY   = 99.7664

EPHEMERIS_TYPE = 0
CLASSIFICATION_TYPE = U
NORAD_CAT_ID   = 11267
ELEMENT_SET_NO = 999
REV_AT_EPOCH   = 51970
BSTAR          = .80991E-4
MEAN_MOTION_DOT = .843E-5
MEAN_MOTION_DDOT = 0

CCSDS_OMM_VERS = 2.0
CREATION_DATE  = 
ORIGINATOR     = 

OBJECT_NAME    = SL-8 R/B
OBJECT_ID      = 1979-089B
CENTER_NAME    = EARTH
REF_FRAME      = TEME
TIME_SYSTEM    = UTC
MEAN_ELEMENT_THEORY = SGP/SGP4

EPOCH          = 2026-01-07T20:19:48.614016
MEAN_MOTION    = 14.42301666
ECCENTRICITY   = .0015173
INCLINATION    = 74.0672
RA_OF_ASC_NODE = 203.6591
ARG_OF_PERICENTER = 27.8156
MEAN_ANOMALY   = 332.3809

EPHEMERIS_TYPE = 0
CLASSIFICATION_TYPE = U
NORAD_CAT_ID   = 11574
ELEMENT_SET_NO = 999
REV_AT_EPOCH   = 42733
BSTAR          = .9422E-4
MEAN_MOTION_DOT = .285E-5
MEAN_MOTION_DDOT = 0

CCSDS_OMM_VERS = 2.0
CREATION_DATE  = 
ORIGINATOR     = 

OBJECT_NAME    = SL-14 R/B
OBJECT_ID      = 1980-005B
CENTER_NAME    = EARTH
REF_FRAME      = TEME
TIME_SYSTEM    = UTC
MEAN_ELEMENT_THEORY = SGP/SGP4

EPOCH          = 2026-01-07T17:15:40.497408
MEAN_MOTION    = 14.90831464
ECCENTRICITY   = .0016094
INCLINATION    = 82.5141
RA_OF_ASC_NODE = 5.0563
ARG_OF_PERICENTER = 12.7715
MEAN_ANOMALY   = 347.3908

EPHEMERIS_TYPE = 0
CLASSIFICATION_TYPE = U
NORAD_CAT_ID   = 11672
ELEMENT_SET_NO = 999
REV_AT_EPOCH   = 46740
BSTAR          = .782E-4
MEAN_MOTION_DOT = .796E-5
MEAN_MOTION_DDOT = 0

CCSDS_OMM_VERS = 2.0
CREATION_DATE  = 
ORIGINATOR     = 

OBJECT_NAME    = SL-8 R/B
OBJECT_ID      = 1981-003B
CENTER_NAME    = EARTH
REF_FRAME      = TEME
TIME_SYSTEM    = UTC
MEAN_ELEMENT_THEORY = SGP/SGP4

EPOCH          = 2026-01-07T16:35:08.435040
MEAN_MOTION    = 15.08130773
ECCENTRICITY   = .0274091
INCLINATION    = 82.9383
RA_OF_ASC_NODE = 346.3208
ARG_OF_PERICENTER = 31.2774
MEAN_ANOMALY   = 330.4436

EPHEMERIS_TYPE = 0
CLASSIFICATION_TYPE = U
NORAD_CAT_ID   = 12139
ELEMENT_SET_NO = 999
REV_AT_EPOCH   = 30547
BSTAR          = .60214E-3
MEAN_MOTION_DOT = .22817E-3
MEAN_MOTION_DDOT = 0

CCSDS_OMM_VERS = 2.0
CREATION_DATE  = 
ORIGINATOR     = 

OBJECT_NAME    = SL-3 R/B
OBJECT_ID      = 1981-046B
CENTER_NAME    = EARTH
REF_FRAME      = TEME
TIME_SYSTEM    = UTC
MEAN_ELEMENT_THEORY = SGP/SGP4

EPOCH          = 2026-01-07T19:35:24.960768
MEAN_MOTION    = 15.40266000
ECCENTRICITY   = .0018132
INCLINATION    = 81.2327
RA_OF_ASC_NODE = 2.7254
ARG_OF_PERICENTER = 227.3108
MEAN_ANOMALY   = 132.6607

EPHEMERIS_TYPE = 0
CLASSIFICATION_TYPE = U
NORAD_CAT_ID   = 12465
ELEMENT_SET_NO = 999
REV_AT_EPOCH   = 42905
BSTAR          = .26153E-3
MEAN_MOTION_DOT = .10616E-3
MEAN_MOTION_DDOT = 0

CCSDS_OMM_VERS = 2.0
CREATION_DATE  = 
ORIGINATOR     = 

OBJECT_NAME    = SL-3 R/B
OBJECT_ID      = 1981-103B
CENTER_NAME    = EARTH
REF_FRAME      = TEME
TIME_SYSTEM    = UTC
MEAN_ELEMENT_THEORY = SGP/SGP4

EPOCH          = 2026-01-07T20:28:57.787104
MEAN_MOTION    = 15.20606028
ECCENTRICITY   = .0014027
INCLINATION    = 81.1595
RA_OF_ASC_NODE = 284.7657
ARG_OF_PERICENTER = 125.2272
MEAN_ANOMALY   = 235.0274

EPHEMERIS_TYPE = 0
CLASSIFICATION_TYPE = U
NORAD_CAT_ID   = 12904
ELEMENT_SET_NO = 999
REV_AT_EPOCH   = 96398
BSTAR          = .27605E-3
MEAN_MOTION_DOT = .6091E-4
MEAN_MOTION_DDOT = 0

CCSDS_OMM_VERS = 2.0
CREATION_DATE  = 
ORIGINATOR     = 

OBJECT_NAME    = SL-3 R/B
OBJECT_ID      = 1982-013B
CENTER_NAME    = EARTH
REF_FRAME      = TEME
TIME_SYSTEM    = UTC
MEAN_ELEMENT_THEORY = SGP/SGP4

EPOCH          = 2026-01-07T19:44:58.382880
MEAN_MOTION    = 15.21353327
ECCENTRICITY   = .0023398
INCLINATION    = 81.1727
RA_OF_ASC_NODE = 232.0743
ARG_OF_PERICENTER = 27.1151
MEAN_ANOMALY   = 333.1296

EPHEMERIS_TYPE = 0
CLASSIFICATION_TYPE = U
NORAD_CAT_ID   = 13068
ELEMENT_SET_NO = 999
REV_AT_EPOCH   = 39509
BSTAR          = .19597E-3
MEAN_MOTION_DOT = .4447E-4
MEAN_MOTION_DDOT = 0

CCSDS_OMM_VERS = 2.0
CREATION_DATE  = 
ORIGINATOR     = 

OBJECT_NAME    = SL-3 R/B
OBJECT_ID      = 1982-039B
CENTER_NAME    = EARTH
REF_FRAME      = TEME
TIME_SYSTEM    = UTC
MEAN_ELEMENT_THEORY = SGP/SGP4

EPOCH          = 2026-01-07T19:42:17.151840
MEAN_MOTION    = 15.09711979
ECCENTRICITY   = .0029714
INCLINATION    = 81.1691
RA_OF_ASC_NODE = 286.0870
ARG_OF_PERICENTER = 164.0204
MEAN_ANOMALY   = 196.1966

EPHEMERIS_TYPE = 0
CLASSIFICATION_TYPE = U
NORAD_CAT_ID   = 13154
ELEMENT_SET_NO = 999
REV_AT_EPOCH   = 37245
BSTAR          = .18513E-3
MEAN_MOTION_DOT = .3038E-4
MEAN_MOTION_DDOT = 0

